[{"OBJECT_NAME":"STARLINK-32026","OBJECT_ID":"2024-117H","EPOCH":"2026-03-09T22:19:35.263200","MEAN_MOTION":15.30198825,"ECCENTRICITY":0.00010035,"INCLINATION":53.1609,"RA_OF_ASC_NODE":35.9807,"ARG_OF_PERICENTER":86.3664,"MEAN_ANOMALY":273.7451,"EPHEMERIS_TYPE":0,"CLASSIFICATION_TYPE":"U","NORAD_CAT_ID":60098,"ELEMENT_SET_NO":999,"REV_AT_EPOCH":9692,"BSTAR":1.3954079e-5,"MEAN_MOTION_DOT":5.4e-7,"MEAN_MOTION_DDOT":0},{"OBJECT_NAME":"OBJECT N","OBJECT_ID":"2024-205N","EPOCH":"2026-03-09T22:36:13.267872","MEAN_MOTION":15.33862123,"ECCENTRICITY":0.00094432,"INCLINATION":97.4211,"RA_OF_ASC_NODE":148.9295,"ARG_OF_PERICENTER":39.7652,"MEAN_ANOMALY":320.4281,"EPHEMERIS_TYPE":0,"CLASSIFICATION_TYPE":"U","NORAD_CAT_ID":61906,"ELEMENT_SET_NO":999,"REV_AT_EPOCH":7364,"BSTAR":0.00078005624,"MEAN_MOTION_DOT":0.00025559,"MEAN_MOTION_DDOT":0}]
